{"type": "FeatureCollection", "features": [ {"type": "Feature", "properties": {"norad_id": 49810, "name": "GSAT0224 (GALILEO 28)", "group": "gnss", "lat": -57.07080984674342, "lon": -97.63712506495003, "alt_km": 23216.86732127367, "timestamp": "2025-12-14T11:29:50.303901+00:00", "meta": {"OBJECT_NAME": "GSAT0224 (GALILEO 28)", "OBJECT_ID": "2021-116B", "EPOCH": "2025-12-10T19:26:19.690368", "MEAN_MOTION": 1.70475895, "ECCENTRICITY": 0.000393, "INCLINATION": 57.2205, "RA_OF_ASC_NODE": 346.7629, "ARG_OF_PERICENTER": 256.2791, "MEAN_ANOMALY": 284.9883, "EPHEMERIS_TYPE": 0, "CLASSIFICATION_TYPE": "U", "NORAD_CAT_ID": 49810, "ELEMENT_SET_NO": 999, "REV_AT_EPOCH": 2499, "BSTAR": 0, "MEAN_MOTION_DOT": -8.7e-07, "MEAN_MOTION_DDOT": 0}, "tle": {"line1": "1 49810U 21116B   25344.80995012 -.00000087  00000+0  00000+0 0  9999", "line2": "2 49810  57.2205 346.7629 0003930 256.2791 284.9883  1.70475895 24991"}}, "geometry": {"type": "Point", "coordinates": [-97.63712506495003, -57.07080984674342]}}, {"type": "Feature", "properties": {"norad_id": 52984, "name": "COSMOS 2557 (706K)", "group": "gnss", "lat": -16.49356943184323, "lon": 149.13611492784483, "alt_km": 19125.527600551413, "timestamp": "2025-12-14T11:29:50.303915+00:00", "meta": {"OBJECT_NAME": "COSMOS 2557 (706K)", "OBJECT_ID": "2022-075A", "EPOCH": "2025-12-07T04:21:00.419904", "MEAN_MOTION": 2.13101754, "ECCENTRICITY": 0.00137049, "INCLINATION": 64.4129, "RA_OF_ASC_NODE": 321.247, "ARG_OF_PERICENTER": 276.9, "MEAN_ANOMALY": 82.939, "EPHEMERIS_TYPE": 0, "CLASSIFICATION_TYPE": "U", "NORAD_CAT_ID": 52984, "ELEMENT_SET_NO": 999, "REV_AT_EPOCH": 2662, "BSTAR": 0, "MEAN_MOTION_DOT": -5.2e-07, "MEAN_MOTION_DDOT": 0}, "tle": {"line1": "1 52984U 22075A   25341.18125486 -.00000052  00000+0  00000+0 0  9990", "line2": "2 52984  64.4129 321.2470 0013704 276.9000  82.9390  2.13101754 26625"}}, "geometry": {"type": "Point", "coordinates": [149.13611492784483, -16.49356943184323]}}, {"type": "Feature", "properties": {"norad_id": 54031, "name": "COSMOS 2559 (707K)", "group": "gnss", "lat": -20.298141428975555, "lon": -49.15183272034549, "alt_km": 19157.565922456066, "timestamp": "2025-12-14T11:29:50.303926+00:00", "meta": {"OBJECT_NAME": "COSMOS 2559 (707K)", "OBJECT_ID": "2022-130A", "EPOCH": "2025-12-13T02:25:11.978976", "MEAN_MOTION": 2.13101368, "ECCENTRICITY": 0.00117843, "INCLINATION": 64.3821, "RA_OF_ASC_NODE": 321.1284, "ARG_OF_PERICENTER": 192.3718, "MEAN_ANOMALY": 167.5993, "EPHEMERIS_TYPE": 0, "CLASSIFICATION_TYPE": "U", "NORAD_CAT_ID": 54031, "ELEMENT_SET_NO": 999, "REV_AT_EPOCH": 2472, "BSTAR": 0, "MEAN_MOTION_DOT": -6.2e-07, "MEAN_MOTION_DDOT": 0}, "tle": {"line1": "1 54031U 22130A   25347.10083309 -.00000062  00000+0  00000+0 0  9993", "line2": "2 54031  64.3821 321.1284 0011784 192.3718 167.5993  2.13101368 24722"}}, "geometry": {"type": "Point", "coordinates": [-49.15183272034549, -20.298141428975555]}}, {"type": "Feature", "properties": {"norad_id": 54377, "name": "COSMOS 2564 (761)", "group": "gnss", "lat": 63.89896269756433, "lon": -55.68325013233468, "alt_km": 19129.796422783136, "timestamp": "2025-12-14T11:29:50.303937+00:00", "meta": {"OBJECT_NAME": "COSMOS 2564 (761)", "OBJECT_ID": "2022-161A", "EPOCH": "2025-12-13T09:56:35.350656", "MEAN_MOTION": 2.13102091, "ECCENTRICITY": 0.00086002, "INCLINATION": 64.7383, "RA_OF_ASC_NODE": 198.8765, "ARG_OF_PERICENTER": 204.6894, "MEAN_ANOMALY": 155.3431, "EPHEMERIS_TYPE": 0, "CLASSIFICATION_TYPE": "U", "NORAD_CAT_ID": 54377, "ELEMENT_SET_NO": 999, "REV_AT_EPOCH": 2367, "BSTAR": 0, "MEAN_MOTION_DOT": 8.1e-07, "MEAN_MOTION_DDOT": 0}, "tle": {"line1": "1 54377U 22161A   25347.41429804  .00000081  00000+0  00000+0 0  9998", "line2": "2 54377  64.7383 198.8765 0008600 204.6894 155.3431  2.13102091 23679"}}, "geometry": {"type": "Point", "coordinates": [-55.68325013233468, 63.89896269756433]}}, {"type": "Feature", "properties": {"norad_id": 55268, "name": "GPS BIII-6  (PRN 28)", "group": "gnss", "lat": -0.815793215059601, "lon": 155.19973589404785, "alt_km": 20173.457753589493, "timestamp": "2025-12-14T11:29:50.303950+00:00", "meta": {"OBJECT_NAME": "GPS BIII-6  (PRN 28)", "OBJECT_ID": "2023-009A", "EPOCH": "2025-12-13T12:37:03.021024", "MEAN_MOTION": 2.00555696, "ECCENTRICITY": 0.00037118, "INCLINATION": 55.1051, "RA_OF_ASC_NODE": 155.8142, "ARG_OF_PERICENTER": 357.4368, "MEAN_ANOMALY": 33.2544, "EPHEMERIS_TYPE": 0, "CLASSIFICATION_TYPE": "U", "NORAD_CAT_ID": 55268, "ELEMENT_SET_NO": 999, "REV_AT_EPOCH": 2152, "BSTAR": 0, "MEAN_MOTION_DOT": 1e-06, "MEAN_MOTION_DDOT": 0}, "tle": {"line1": "1 55268U 23009A   25347.52572941  .00000100  00000+0  00000+0 0  9995", "line2": "2 55268  55.1051 155.8142 0003711 357.4368  33.2544  2.00555696 21528"}}, "geometry": {"type": "Point", "coordinates": [155.19973589404785, -0.815793215059601]}}, {"type": "Feature", "properties": {"norad_id": 56564, "name": "BEIDOU-3 G4 (C62)", "group": "gnss", "lat": 0.7626523178356972, "lon": 55.88211387721585, "alt_km": 35791.54016593236, "timestamp": "2025-12-14T11:29:50.303962+00:00", "meta": {"OBJECT_NAME": "BEIDOU-3 G4 (C62)", "OBJECT_ID": "2023-066A", "EPOCH": "2025-12-13T14:12:38.887200", "MEAN_MOTION": 1.00271694, "ECCENTRICITY": 0.00028636, "INCLINATION": 0.8127, "RA_OF_ASC_NODE": 302.121, "ARG_OF_PERICENTER": 231.0202, "MEAN_ANOMALY": 282.6075, "EPHEMERIS_TYPE": 0, "CLASSIFICATION_TYPE": "U", "NORAD_CAT_ID": 56564, "ELEMENT_SET_NO": 999, "REV_AT_EPOCH": 953, "BSTAR": 0, "MEAN_MOTION_DOT": -9.6e-07, "MEAN_MOTION_DDOT": 0}, "tle": {"line1": "1 56564U 23066A   25347.59211675 -.00000096  00000+0  00000+0 0  9994", "line2": "2 56564   0.8127 302.1210 0002863 231.0202 282.6075  1.00271694  9531"}}, "geometry": {"type": "Point", "coordinates": [55.88211387721585, 0.7626523178356972]}}, {"type": "Feature", "properties": {"norad_id": 56759, "name": "NVS-01 (IRNSS-1J)", "group": "gnss", "lat": 1.9027167446358733, "lon": 25.436648274850082, "alt_km": 35802.855822554164, "timestamp": "2025-12-14T11:29:50.303988+00:00", "meta": {"OBJECT_NAME": "NVS-01 (IRNSS-1J)", "OBJECT_ID": "2023-076A", "EPOCH": "2025-12-13T15:46:37.386624", "MEAN_MOTION": 1.00277142, "ECCENTRICITY": 0.00089317, "INCLINATION": 2.6156, "RA_OF_ASC_NODE": 251.5627, "ARG_OF_PERICENTER": 14.7382, "MEAN_ANOMALY": 182.4002, "EPHEMERIS_TYPE": 0, "CLASSIFICATION_TYPE": "U", "NORAD_CAT_ID": 56759, "ELEMENT_SET_NO": 999, "REV_AT_EPOCH": 925, "BSTAR": 0, "MEAN_MOTION_DOT": -3.18e-06, "MEAN_MOTION_DDOT": 0}, "tle": {"line1": "1 56759U 23076A   25347.65737716 -.00000318  00000+0  00000+0 0  9994", "line2": "2 56759   2.6156 251.5627 0008931  14.7382 182.4002  1.00277142  9255"}}, "geometry": {"type": "Point", "coordinates": [25.436648274850082, 1.9027167446358733]}}, {"type": "Feature", "properties": {"norad_id": 57517, "name": "COSMOS 2569 (703K)", "group": "gnss", "lat": 64.99085933890724, "lon": 160.68441439056534, "alt_km": 19147.970006616353, "timestamp": "2025-12-14T11:29:50.304002+00:00", "meta": {"OBJECT_NAME": "COSMOS 2569 (703K)", "OBJECT_ID": "2023-114A", "EPOCH": "2025-12-12T23:00:06.356160", "MEAN_MOTION": 2.13103989, "ECCENTRICITY": 0.00105383, "INCLINATION": 65.1943, "RA_OF_ASC_NODE": 78.9061, "ARG_OF_PERICENTER": 287.004, "MEAN_ANOMALY": 72.8956, "EPHEMERIS_TYPE": 0, "CLASSIFICATION_TYPE": "U", "NORAD_CAT_ID": 57517, "ELEMENT_SET_NO": 999, "REV_AT_EPOCH": 1829, "BSTAR": 0, "MEAN_MOTION_DOT": -4.5e-07, "MEAN_MOTION_DDOT": 0}, "tle": {"line1": "1 57517U 23114A   25346.95840690 -.00000045  00000+0  00000+0 0  9995", "line2": "2 57517  65.1943  78.9061 0010538 287.0040  72.8956  2.13103989 18297"}}, "geometry": {"type": "Point", "coordinates": [160.68441439056534, 64.99085933890724]}}, {"type": "Feature", "properties": {"norad_id": 58654, "name": "BEIDOU-3 M28 (C50)", "group": "gnss", "lat": -51.541326431649125, "lon": 9.020061857163606, "alt_km": 21527.647310353263, "timestamp": "2025-12-14T11:29:50.304013+00:00", "meta": {"OBJECT_NAME": "BEIDOU-3 M28 (C50)", "OBJECT_ID": "2023-207A", "EPOCH": "2025-12-11T21:37:33.991968", "MEAN_MOTION": 1.86229651, "ECCENTRICITY": 0.00023562, "INCLINATION": 55.5838, "RA_OF_ASC_NODE": 68.6297, "ARG_OF_PERICENTER": 269.3243, "MEAN_ANOMALY": 90.6691, "EPHEMERIS_TYPE": 0, "CLASSIFICATION_TYPE": "U", "NORAD_CAT_ID": 58654, "ELEMENT_SET_NO": 999, "REV_AT_EPOCH": 1335, "BSTAR": 0, "MEAN_MOTION_DOT": -6.9e-07, "MEAN_MOTION_DDOT": 0}, "tle": {"line1": "1 58654U 23207A   25345.90108787 -.00000069  00000+0  00000+0 0  9995", "line2": "2 58654  55.5838  68.6297 0002356 269.3243  90.6691  1.86229651 13350"}}, "geometry": {"type": "Point", "coordinates": [9.020061857163606, -51.541326431649125]}}, {"type": "Feature", "properties": {"norad_id": 58655, "name": "BEIDOU-3 M26 (C48)", "group": "gnss", "lat": 47.90116462750504, "lon": 117.78864117519213, "alt_km": 21532.788308493797, "timestamp": "2025-12-14T11:29:50.304024+00:00", "meta": {"OBJECT_NAME": "BEIDOU-3 M26 (C48)", "OBJECT_ID": "2023-207B", "EPOCH": "2025-12-13T07:25:48.468864", "MEAN_MOTION": 1.86231261, "ECCENTRICITY": 0.00038294, "INCLINATION": 55.587, "RA_OF_ASC_NODE": 68.5683, "ARG_OF_PERICENTER": 255.9601, "MEAN_ANOMALY": 104.0159, "EPHEMERIS_TYPE": 0, "CLASSIFICATION_TYPE": "U", "NORAD_CAT_ID": 58655, "ELEMENT_SET_NO": 999, "REV_AT_EPOCH": 1336, "BSTAR": 0, "MEAN_MOTION_DOT": -7.9e-07, "MEAN_MOTION_DDOT": 0}, "tle": {"line1": "1 58655U 23207B   25347.30958876 -.00000079  00000+0  00000+0 0  9995", "line2": "2 58655  55.5870  68.5683 0003829 255.9601 104.0159  1.86231261 13360"}}, "geometry": {"type": "Point", "coordinates": [117.78864117519213, 47.90116462750504]}}]}